ORBCOMM FM24            
1 25478U 98053D   25042.75644504  .00002338  00000+0  81997-3 0  9991
2 25478  45.0071 143.5975 0002947 269.1661  90.8850 14.37529696379395
ORBCOMM FM25            
1 25479U 98053E   25042.72571974  .00002255  00000+0  79267-3 0  9994
2 25479  45.0063 141.9997 0004268 303.8938  56.1503 14.37512153379686
ORBCOMM FM26            
1 25480U 98053F   25042.72764737  .00001918  00000+0  69319-3 0  9999
2 25480  45.0060 137.5799 0005200 334.1541  25.9047 14.36655693379605
ORBCOMM FM27            
1 25481U 98053G   25042.71513871  .00002100  00000+0  74163-3 0  9997
2 25481  45.0046 142.2896 0002222 239.5646 120.4983 14.37519853379615
ORBCOMM FM28            
1 25482U 98053H   25042.77194300  .00001738  00000+0  61856-3 0  9997
2 25482  45.0059  79.7306 0003785 352.4808   7.5982 14.37773223380305
ORBCOMM FM30            
1 25980U 99065A   25042.87063078  .00001844  00000+0  66627-3 0  9991
2 25980  45.0324 322.6933 0005900  89.0420 271.1104 14.36815479316429
ORBCOMM FM31            
1 25981U 99065B   25042.90921962  .00001574  00000+0  57606-3 0  9998
2 25981  45.0241 316.0432 0003028 109.3876 250.7300 14.36781179315989
ORBCOMM FM32            
1 25982U 99065C   25042.87199468  .00001741  00000+0  64411-3 0  9991
2 25982  45.0167 331.9498 0004707 112.9972 247.1372 14.35820931316582
